OBJECT_NAME,OBJECT_ID,EPOCH,MEAN_MOTION,ECCENTRICITY,INCLINATION,RA_OF_ASC_NODE,ARG_OF_PERICENTER,MEAN_ANOMALY,EPHEMERIS_TYPE,CLASSIFICATION_TYPE,NORAD_CAT_ID,ELEMENT_SET_NO,REV_AT_EPOCH,BSTAR,MEAN_MOTION_DOT,MEAN_MOTION_DDOT
CUBEBUG-2 (LO-74),2013-066AA,2026-07-05T06:46:46.252128,14.93923546,.00563568,97.8914,135.3391,329.1937,30.5979,0,U,39440,999,67969,.64943937E-3,.707E-4,0
FUNCUBE-1 (AO-73),2013-066AE,2026-07-04T21:17:34.529280,15.09718097,.00374059,97.8283,157.7053,141.4256,218.9657,0,U,39444,999,68233,.72371422E-3,.11803E-3,0
UWE-3,2013-066AG,2026-07-04T20:39:28.027584,14.97156601,.00473427,97.8705,142.0564,260.6060,98.9807,0,U,39446,999,68022,.43020229E-3,.5022E-4,0
UNISAT-6,2014-033C,2026-07-05T05:15:05.181408,14.88337835,.00450177,97.7902,338.6157,10.8555,349.3623,0,U,40012,999,64884,.39636156E-3,.3681E-4,0
DUCHIFAT-1,2014-033M,2026-07-04T17:12:29.626848,15.68680703,.00005512,98.0425,247.3916,273.4953,86.6243,0,U,40021,999,65849,.18350934E-2,.213562E-2,0
QB50P1,2014-033R,2026-07-04T17:53:36.901536,15.18544565,.00096362,98.0964,198.1255,155.8537,204.3149,0,U,40025,999,65569,.66808568E-3,.13753E-3,0
LILACSAT-2,2015-049K,2026-07-05T06:20:03.155424,15.52087952,.00075236,97.4623,223.7972,172.1339,188.0033,0,U,40908,999,59855,.40290399E-3,.24281E-3,0
FOX-1A (AO-85),2015-058D,2026-07-04T17:23:15.140256,14.91048256,.01315597,64.7733,224.4803,49.7898,311.4638,0,U,40967,999,11618,.31797294E-3,.3548E-4,0
CAS-2T & KS-1Q,2016-066G,2026-07-04T11:39:48.526848,14.44750691,.03427469,98.3815,261.0243,77.1704,286.7545,0,U,41847,999,50729,.24203059E-3,.1682E-4,0
RADFXSAT (FOX-1B),2017-073E,2026-07-04T14:29:02.333472,15.12956559,.01481262,97.4674,52.4626,268.4592,89.9668,0,U,43017,999,46802,.46642117E-3,.10713E-3,0
DIWATA-2B,2018-084H,2026-07-05T07:24:13.269024,15.00534086,.00130903,98.1209,23.3079,114.3859,245.8732,0,U,43678,999,41893,.26529409E-3,.3285E-4,0
ES'HAIL 2,2018-090A,2026-07-05T05:24:32.862240,1.00274018,.00023003,0.0150,63.3589,79.6001,247.2082,0,U,43700,999,2785,0,.158E-5,0
FOX-1CLIFF (AO-95),2018-099N,2026-07-05T02:23:33.304992,15.27119399,.00069105,97.4372,246.2835,283.5806,76.4663,0,U,43770,999,41595,.79587106E-3,.21145E-3,0
ITASAT,2018-099AE,2026-07-05T03:14:50.077248,15.19295486,.00107254,97.4014,237.2902,291.2868,68.7221,0,U,43786,999,41563,.54666685E-3,.11495E-3,0
JY1SAT (JO-97),2018-099AX,2026-07-04T17:01:06.426624,15.34248688,.00058542,97.4116,248.6096,191.8532,168.2574,0,U,43803,999,41631,.91904041E-3,.30491E-3,0
UWE-4,2018-111E,2026-07-05T06:22:26.647680,15.47332143,.00046529,97.5846,115.5039,239.1139,120.9653,0,U,43880,999,41357,.10203196E-2,.52302E-3,0
TIANYAN 01,2019-093C,2026-07-05T06:52:15.519072,14.86549495,.00143922,97.7521,258.0766,32.7829,327.4277,0,U,44881,999,35410,.14590898E-3,.1241E-4,0
RS-44 & BREEZE-KM R/B,2019-096E,2026-07-04T19:55:50.730528,12.79748994,.02185869,82.5235,327.9805,103.1033,259.4562,0,U,44909,999,30460,.45232534E-4,.24E-6,0
SALSAT,2020-068K,2026-07-04T17:44:40.784352,15.30063013,.00082227,97.8855,189.8756,233.3566,126.6918,0,U,46495,999,31804,.46989133E-3,.13612E-3,0
XW-3 (CAS-9),2021-131B,2026-07-05T07:28:55.613856,14.41375141,.00050833,98.4987,278.6038,55.4605,304.7063,0,U,50466,999,23772,.21080145E-3,.639E-5,0
GREENCUBE (IO-117),2022-080E,2026-07-05T05:42:53.850528,6.42583233,.00089348,70.1429,291.9681,285.8124,74.1550,0,U,53109,999,9322,0,-.3E-7,0
UMKA 1 (RS40S),2023-091G,2026-07-05T04:28:46.413984,15.21041890,.00138423,97.5033,244.8159,61.7535,298.5096,0,U,57172,999,16674,.49909272E-3,.11046E-3,0
CUBESX-HSE 3 (RS42S),2023-091N,2026-07-05T03:25:06.206016,15.31702832,.00107295,97.5076,251.9612,37.1242,323.0739,0,U,57178,999,16717,.78788827E-3,.2413E-3,0
MONITOR-3 (RS58S),2023-091Q,2026-07-05T06:32:24.665280,15.28232784,.00120171,97.5068,249.8546,43.4976,316.7209,0,U,57180,999,16705,.63749347E-3,.1752E-3,0
MONITOR-4 (RS57S),2023-091S,2026-07-05T02:52:14.767968,15.28315671,.00120431,97.5062,249.6727,44.3387,315.8815,0,U,57182,999,16703,.7120852E-3,.19635E-3,0
MONITOR-2 (RS39S),2023-091U,2026-07-05T07:07:04.962144,15.19092496,.00122583,97.5058,244.4634,55.9264,304.3132,0,U,57184,999,16670,.40575891E-3,.8464E-4,0
SVYATOBOR 1 (RS60S),2023-091X,2026-07-05T06:42:27.705312,15.26944983,.00097638,97.5074,250.1992,38.3897,321.8035,0,U,57187,999,16707,.55620511E-3,.14674E-3,0
VIZARD-METEO (RS38S),2023-091Z,2026-07-05T04:32:59.447616,15.36642481,.00066454,97.5077,256.0420,18.5909,341.5576,0,U,57189,999,16745,.78315664E-3,.28026E-3,0
POLYTECH-UNIVERSE 3 (RS46S),2023-091AB,2026-07-05T04:33:03.187008,15.19299582,.00167762,97.5031,243.8613,69.9759,290.3280,0,U,57191,999,16668,.42289543E-3,.8893E-4,0
UTMN 2 (RS27S),2023-091AP,2026-07-05T06:44:28.422528,15.32528055,.00077677,97.5072,253.7572,26.0626,334.1005,0,U,57203,999,16731,.65579128E-3,.20569E-3,0
